{
  "type": "FeatureCollection",
  "features": [
    {
      "type": "Feature",
      "properties": {
        "norad_id": 30040,
        "name": "FENGYUN 1C DEB",
        "group": "fengyun-1c-debris",
        "lat": 32.868915534190386,
        "lon": 9.20124683988116,
        "alt_km": 776.133393219272,
        "timestamp": "2025-12-24T16:52:41.805312+00:00",
        "meta_object_name": "FENGYUN 1C DEB",
        "meta_object_id": "1999-025NR",
        "meta_epoch": "2025-12-24T00:15:59.435712",
        "meta_mean_motion": 14.37220007,
        "meta_eccentricity": 0.00322887,
        "meta_inclination": 98.2329,
        "meta_ra_of_asc_node": 13.9068,
        "meta_arg_of_pericenter": 278.2765,
        "meta_mean_anomaly": 135.5983,
        "meta_ephemeris_type": 0,
        "meta_classification_type": "U",
        "meta_norad_cat_id": 30040,
        "meta_element_set_no": 999,
        "meta_rev_at_epoch": 98090,
        "meta_bstar": 0.0016615382,
        "meta_mean_motion_dot": 4.938e-05,
        "meta_mean_motion_ddot": 0,
        "tle_line1": "1 30040U 99025NR  25358.01110458  .00004938  00000+0  16615-2 0  9999",
        "tle_line2": "2 30040  98.2329  13.9068 0032288 278.2765 135.5983 14.37220007980905"
      },
      "geometry": {
        "type": "Point",
        "coordinates": [
          9.20124683988116,
          32.868915534190386
        ]
      }
    },
    {
      "type": "Feature",
      "properties": {
        "norad_id": 30041,
        "name": "FENGYUN 1C DEB",
        "group": "fengyun-1c-debris",
        "lat": 25.180006311842885,
        "lon": 101.38854710810085,
        "alt_km": 871.2424484222147,
        "timestamp": "2025-12-24T16:52:41.805323+00:00",
        "meta_object_name": "FENGYUN 1C DEB",
        "meta_object_id": "1999-025NS",
        "meta_epoch": "2025-12-24T05:09:54.094752",
        "meta_mean_motion": 14.13204964,
        "meta_eccentricity": 0.0035223,
        "meta_inclination": 99.4668,
        "meta_ra_of_asc_node": 105.3718,
        "meta_arg_of_pericenter": 185.5007,
        "meta_mean_anomaly": 238.6745,
        "meta_ephemeris_type": 0,
        "meta_classification_type": "U",
        "meta_norad_cat_id": 30041,
        "meta_element_set_no": 999,
        "meta_rev_at_epoch": 97449,
        "meta_bstar": 0.00045278091,
        "meta_mean_motion_dot": 8.03e-06,
        "meta_mean_motion_ddot": 0,
        "tle_line1": "1 30041U 99025NS  25358.21520943  .00000803  00000+0  45278-3 0  9991",
        "tle_line2": "2 30041  99.4668 105.3718 0035223 185.5007 238.6745 14.13204964974490"
      },
      "geometry": {
        "type": "Point",
        "coordinates": [
          101.38854710810085,
          25.180006311842885
        ]
      }
    },
    {
      "type": "Feature",
      "properties": {
        "norad_id": 30043,
        "name": "FENGYUN 1C DEB",
        "group": "fengyun-1c-debris",
        "lat": 52.15992653129247,
        "lon": -72.27901879969492,
        "alt_km": 631.3594468508891,
        "timestamp": "2025-12-24T16:52:41.805333+00:00",
        "meta_object_name": "FENGYUN 1C DEB",
        "meta_object_id": "1999-025NU",
        "meta_epoch": "2025-12-23T13:19:05.384352",
        "meta_mean_motion": 14.23625121,
        "meta_eccentricity": 0.02834512,
        "meta_inclination": 98.6277,
        "meta_ra_of_asc_node": 95.3219,
        "meta_arg_of_pericenter": 99.6048,
        "meta_mean_anomaly": 263.7275,
        "meta_ephemeris_type": 0,
        "meta_classification_type": "U",
        "meta_norad_cat_id": 30043,
        "meta_element_set_no": 999,
        "meta_rev_at_epoch": 97499,
        "meta_bstar": 0.00070616238,
        "meta_mean_motion_dot": 2.392e-05,
        "meta_mean_motion_ddot": 0,
        "tle_line1": "1 30043U 99025NU  25357.55492343  .00002392  00000+0  70616-3 0  9990",
        "tle_line2": "2 30043  98.6277  95.3219 0283451  99.6048 263.7275 14.23625121974996"
      },
      "geometry": {
        "type": "Point",
        "coordinates": [
          -72.27901879969492,
          52.15992653129247
        ]
      }
    },
    {
      "type": "Feature",
      "properties": {
        "norad_id": 30044,
        "name": "FENGYUN 1C DEB",
        "group": "fengyun-1c-debris",
        "lat": 80.50052861280724,
        "lon": 158.3717754711774,
        "alt_km": 669.0539797419524,
        "timestamp": "2025-12-24T16:52:41.805344+00:00",
        "meta_object_name": "FENGYUN 1C DEB",
        "meta_object_id": "1999-025NV",
        "meta_epoch": "2025-12-23T10:38:57.522912",
        "meta_mean_motion": 14.50782614,
        "meta_eccentricity": 0.00801869,
        "meta_inclination": 98.2125,
        "meta_ra_of_asc_node": 277.4799,
        "meta_arg_of_pericenter": 134.0448,
        "meta_mean_anomaly": 226.7389,
        "meta_ephemeris_type": 0,
        "meta_classification_type": "U",
        "meta_norad_cat_id": 30044,
        "meta_element_set_no": 999,
        "meta_rev_at_epoch": 98194,
        "meta_bstar": 0.0016453782,
        "meta_mean_motion_dot": 6.712e-05,
        "meta_mean_motion_ddot": 0,
        "tle_line1": "1 30044U 99025NV  25357.44372133  .00006712  00000+0  16454-2 0  9992",
        "tle_line2": "2 30044  98.2125 277.4799 0080186 134.0448 226.7389 14.50782614981948"
      },
      "geometry": {
        "type": "Point",
        "coordinates": [
          158.3717754711774,
          80.50052861280724
        ]
      }
    },
    {
      "type": "Feature",
      "properties": {
        "norad_id": 30045,
        "name": "FENGYUN 1C DEB",
        "group": "fengyun-1c-debris",
        "lat": 80.7156907671048,
        "lon": -46.75658095467134,
        "alt_km": 745.362972947315,
        "timestamp": "2025-12-24T16:52:41.805354+00:00",
        "meta_object_name": "FENGYUN 1C DEB",
        "meta_object_id": "1999-025NW",
        "meta_epoch": "2025-12-24T01:33:08.593920",
        "meta_mean_motion": 14.21696857,
        "meta_eccentricity": 0.00939456,
        "meta_inclination": 99.1784,
        "meta_ra_of_asc_node": 34.083,
        "meta_arg_of_pericenter": 81.2779,
        "meta_mean_anomaly": 340.6844,
        "meta_ephemeris_type": 0,
        "meta_classification_type": "U",
        "meta_norad_cat_id": 30045,
        "meta_element_set_no": 999,
        "meta_rev_at_epoch": 96849,
        "meta_bstar": 0.0019993608,
        "meta_mean_motion_dot": 4.549e-05,
        "meta_mean_motion_ddot": 0,
        "tle_line1": "1 30045U 99025NW  25358.06468280  .00004549  00000+0  19994-2 0  9999",
        "tle_line2": "2 30045  99.1784  34.0830 0093945  81.2779 340.6844 14.21696857968498"
      },
      "geometry": {
        "type": "Point",
        "coordinates": [
          -46.75658095467134,
          80.7156907671048
        ]
      }
    },
    {
      "type": "Feature",
      "properties": {
        "norad_id": 30047,
        "name": "FENGYUN 1C DEB",
        "group": "fengyun-1c-debris",
        "lat": -64.95163151777001,
        "lon": 178.56618058411078,
        "alt_km": 828.8455897646636,
        "timestamp": "2025-12-24T16:52:41.805365+00:00",
        "meta_object_name": "FENGYUN 1C DEB",
        "meta_object_id": "1999-025NY",
        "meta_epoch": "2025-12-23T05:54:04.236768",
        "meta_mean_motion": 13.94372377,
        "meta_eccentricity": 0.01257542,
        "meta_inclination": 99.9194,
        "meta_ra_of_asc_node": 155.0128,
        "meta_arg_of_pericenter": 294.775,
        "meta_mean_anomaly": 246.5335,
        "meta_ephemeris_type": 0,
        "meta_classification_type": "U",
        "meta_norad_cat_id": 30047,
        "meta_element_set_no": 999,
        "meta_rev_at_epoch": 96062,
        "meta_bstar": 0.00059811296,
        "meta_mean_motion_dot": 7.98e-06,
        "meta_mean_motion_ddot": 0,
        "tle_line1": "1 30047U 99025NY  25357.24588237  .00000798  00000+0  59811-3 0  9990",
        "tle_line2": "2 30047  99.9194 155.0128 0125754 294.7750 246.5335 13.94372377960624"
      },
      "geometry": {
        "type": "Point",
        "coordinates": [
          178.56618058411078,
          -64.95163151777001
        ]
      }
    },
    {
      "type": "Feature",
      "properties": {
        "norad_id": 30048,
        "name": "FENGYUN 1C DEB",
        "group": "fengyun-1c-debris",
        "lat": 22.994242423430133,
        "lon": -140.16920042765042,
        "alt_km": 1098.8240010050504,
        "timestamp": "2025-12-24T16:52:41.805375+00:00",
        "meta_object_name": "FENGYUN 1C DEB",
        "meta_object_id": "1999-025NZ",
        "meta_epoch": "2025-12-24T01:53:49.543296",
        "meta_mean_motion": 13.7989905,
        "meta_eccentricity": 0.01864057,
        "meta_inclination": 98.6659,
        "meta_ra_of_asc_node": 222.9693,
        "meta_arg_of_pericenter": 214.1721,
        "meta_mean_anomaly": 309.6679,
        "meta_ephemeris_type": 0,
        "meta_classification_type": "U",
        "meta_norad_cat_id": 30048,
        "meta_element_set_no": 999,
        "meta_rev_at_epoch": 95282,
        "meta_bstar": 0.00019725306,
        "meta_mean_motion_dot": 1.93e-06,
        "meta_mean_motion_ddot": 0,
        "tle_line1": "1 30048U 99025NZ  25358.07904564  .00000193  00000+0  19725-3 0  9997",
        "tle_line2": "2 30048  98.6659 222.9693 0186405 214.1721 309.6679 13.79899050952822"
      },
      "geometry": {
        "type": "Point",
        "coordinates": [
          -140.16920042765042,
          22.994242423430133
        ]
      }
    }
  ]
}